NORAD_CAT_ID,OBJECT_NAME,OBJECT_TYPE,EPOCH,MEAN_MOTION,ECCENTRICITY,INCLINATION,RA_OF_ASC_NODE,ARG_OF_PERICENTER,MEAN_ANOMALY,BSTAR,MEAN_MOTION_DOT,MEAN_MOTION_DDOT,TLE_LINE0,TLE_LINE1,TLE_LINE2,SEMIMAJOR_AXIS,PERIOD,APOGEE,PERIGEE,DECAYED
53014.0,STARLINK-4183,PAYLOAD,2022-07-12 16:00:00,15.88111701,0.0031912,53.2181,354.5843,56.9471,171.3936,-0.0039047,-0.01137914,0.00037283,0 STARLINK-4183,1 53014U 22076AE  22193.66667824 -.01137914  37283-3 -39047-2 0  9991,2 53014  53.2181 354.5843 0031912  56.9471 171.3936 15.88111701  1302,6685.714,90.674,328.915,286.244,0.0
53014.0,STARLINK-4183,PAYLOAD,2022-07-13 04:00:00,15.87004541,0.0027585,53.2175,352.0563,56.2971,151.2996,-0.0043723,-0.01191326,0.00040115,0 STARLINK-4183,1 53014U 22076AE  22194.16667824 -.01191326  40115-3 -43723-2 0  9998,2 53014  53.2175 352.0563 0027585  56.2971 151.2996 15.87004541  1378,6688.823,90.737,329.139,292.237,0.0
53014.0,STARLINK-4183,PAYLOAD,2022-07-13 14:00:01,15.8602861,0.0023685,53.2177,349.9537,54.9556,13.8067,-0.0044098,-0.01135865,0.0003646,0 STARLINK-4183,1 53014U 22076AE  22194.58334491 -.01135865  36460-3 -44098-2 0  9995,2 53014  53.2177 349.9537 0023685  54.9556  13.8067 15.86028610  1304,6691.566999999999,90.793,329.281,297.583,0.0
53014.0,STARLINK-4183,PAYLOAD,2022-07-13 22:00:00,15.85280947,0.0020834,53.2173,348.2747,56.3882,116.2679,-0.0046965,-0.01041348,0.0,0 STARLINK-4183,1 53014U 22076AE  22194.91667824 -.01041348  00000-0 -46965-2 0  9996,2 53014  53.2173 348.2747 0020834  56.3882 116.2679 15.85280947  1495,6693.670999999999,90.836,329.481,301.59,0.0
53014.0,STARLINK-4183,PAYLOAD,2022-07-14 14:00:01,15.83761335,0.0014393,53.2175,344.9188,52.4904,325.2262,-0.0050979,-0.01037684,0.0,0 STARLINK-4183,1 53014U 22076AE  22195.58334491 -.01037684  00000-0 -50979-2 0  9999,2 53014  53.2175 344.9188 0014393  52.4904 325.2262 15.83761335  1600,6697.9519999999975,90.923,329.457,310.176,0.0
53014.0,STARLINK-4183,PAYLOAD,2022-07-14 22:00:00,15.82993584,0.0011517,53.2172,343.2453,52.0912,66.7881,-0.0052166,-0.01021157,0.0,0 STARLINK-4183,1 53014U 22076AE  22195.91667824 -.01021157  00000-0 -52166-2 0  9993,2 53014  53.2172 343.2453 0011517  52.0912  66.7881 15.82993584  1307,6700.1169999999975,90.967,329.699,314.266,0.0
53014.0,STARLINK-4183,PAYLOAD,2022-07-15 14:00:01,15.81497845,0.0006059,53.2176,339.9009,37.9985,280.457,-0.0058626,-0.01058119,0.0,0 STARLINK-4183,1 53014U 22076AE  22196.58334491 -.01058119  00000-0 -58626-2 0  9993,2 53014  53.2176 339.9009 0006059  37.9985 280.4570 15.81497845  1765,6704.340999999999,91.053,330.26800000000014,322.144,0.0
53014.0,STARLINK-4183,PAYLOAD,2022-07-15 22:00:00,15.8072232,0.0004126,53.2171,338.2326,23.1419,33.7415,-0.0059042,-0.01029635,0.0,0 STARLINK-4183,1 53014U 22076AE  22196.91667824 -.01029635  00000-0 -59042-2 0  9993,2 53014  53.2171 338.2326 0004126  23.1419  33.7415 15.80722320  1301,6706.534000000002,91.098,331.166,325.632,0.0
53014.0,STARLINK-4183,PAYLOAD,2022-07-16 14:00:01,15.79210014,0.0003286,53.2174,334.8998,6.9097,244.0789,-0.0064073,-0.01057901,0.0,0 STARLINK-4183,1 53014U 22076AE  22197.58334491 -.01057901  00000-0 -64073-2 0  9995,2 53014  53.2174 334.8998 0003286   6.9097 244.0789 15.79210014  1927,6710.815,91.185,334.885,330.475,0.0
53014.0,STARLINK-4183,PAYLOAD,2022-07-16 22:00:00,15.784524,0.0002928,53.2172,333.237,6.999,339.673,-0.0066436,-0.01059286,0.0,0 STARLINK-4183,1 53014U 22076AE  22197.91667824 -.01059286  00000-0 -66436-2 0  9994,2 53014  53.2172 333.2370 0002928   6.9990 339.6730 15.78452400  1301,6712.962,91.229,336.792,332.861,0.0
53014.0,STARLINK-4183,PAYLOAD,2022-07-17 06:00:00,15.77689729,0.0002949,53.2175,331.5734,8.5372,72.9098,-0.006851,-0.01055672,0.0,0 STARLINK-4183,1 53014U 22076AE  22198.25001157 -.01055672  00000-0 -68510-2 0  9993,2 53014  53.2175 331.5734 0002949   8.5372  72.9098 15.77689729  2023,6715.125,91.273,338.97,335.01,0.0
53014.0,STARLINK-4183,PAYLOAD,2022-07-17 14:00:01,15.76929356,0.0003462,53.2176,329.9154,7.1852,168.1203,-0.0070701,-0.01053371,0.0,0 STARLINK-4183,1 53014U 22076AE  22198.58334491 -.01053371  00000-0 -70701-2 0  9998,2 53014  53.2176 329.9154 0003462   7.1852 168.1203 15.76929356  1308,6717.284000000002,91.317,341.474,336.8230000000001,0.0
53014.0,STARLINK-4183,PAYLOAD,2022-07-17 22:00:00,15.76174761,0.0003341,53.2171,328.2579,5.5339,262.7162,-0.0073677,-0.01060511,0.0,0 STARLINK-4183,1 53014U 22076AE  22198.91667824 -.01060511  00000-0 -73677-2 0  9993,2 53014  53.2171 328.2579 0003341   5.5339 262.7162 15.76174761  1301,6719.427,91.36,343.537,339.047,0.0
53014.0,STARLINK-4183,PAYLOAD,2022-07-18 06:00:00,15.75410874,0.0001176,53.2172,326.6002,31.9758,328.3115,-0.0075757,-0.01053805,0.0,0 STARLINK-4183,1 53014U 22076AE  22199.25001157 -.01053805  00000-0 -75757-2 0  9991,2 53014  53.2172 326.6002 0001176  31.9758 328.3115 15.75410874  2188,6721.599,91.405,344.255,342.6740000000001,0.0
53014.0,STARLINK-4183,PAYLOAD,2022-07-18 14:00:01,15.74654819,0.0001587,53.2173,324.948,38.4305,52.9758,-0.0078742,-0.01059108,0.0,0 STARLINK-4183,1 53014U 22076AE  22199.58334491 -.01059108  00000-0 -78742-2 0  9996,2 53014  53.2173 324.9480 0001587  38.4305  52.9758 15.74654819  1300,6723.751,91.449,346.68300000000005,344.5490000000001,0.0
53014.0,STARLINK-4183,PAYLOAD,2022-07-18 22:00:00,15.73767354,0.0001688,53.2173,323.2959,41.6462,139.9885,-0.0048223999999999,-0.00643637,0.0,0 STARLINK-4183,1 53014U 22076AE  22199.91667824 -.00643637  00000-0 -48224-2 0  9999,2 53014  53.2173 323.2959 0001688  41.6462 139.9885 15.73767354  1300,6726.278,91.5,349.279,347.0080000000001,0.0
53014.0,STARLINK-4183,PAYLOAD,2022-07-19 06:00:00,15.73209699,0.0001306,53.2174,321.6435,66.8881,204.0905,-7.4881e-05,-0.00011119,0.0,0 STARLINK-4183,1 53014U 22076AE  22200.25001157 -.00011119  00000-0 -74881-4 0  9994,2 53014  53.2174 321.6435 0001306  66.8881 204.0905 15.73209699  2348,6727.868,91.533,350.611,348.85400000000016,0.0
53014.0,STARLINK-4183,PAYLOAD,2022-07-19 14:00:01,15.7325939,0.0001413,53.2188,319.9983,50.3092,309.6707,-0.0015812,-0.00217448,0.0,0 STARLINK-4183,1 53014U 22076AE  22200.58334491 -.00217448  00000-0 -15812-2 0  9990,2 53014  53.2188 319.9983 0001413  50.3092 309.6707 15.73259390  2392,6727.726,91.53,350.541,348.64,0.0
53014.0,STARLINK-4183,PAYLOAD,2022-07-19 22:00:00,15.73205563,0.0001322,53.2171,318.3461,52.6813,36.1661,-1.3418e-05,-2.503e-05,0.0,0 STARLINK-4183,1 53014U 22076AE  22200.91667824 -.00002503  00000-0 -13418-4 0  9992,2 53014  53.2171 318.3461 0001322  52.6813  36.1661 15.73205563  2443,6727.879,91.533,350.634,348.855,0.0
53014.0,STARLINK-4183,PAYLOAD,2022-07-20 14:00:01,15.73274155,0.0001512,53.2195,315.0542,44.6564,222.2329,-0.0003183,-0.00045195,0.0,0 STARLINK-4183,1 53014U 22076AE  22201.58334491 -.00045195  00000-0 -31830-3 0  9998,2 53014  53.2195 315.0542 0001512  44.6564 222.2329 15.73274155  1304,6727.684,91.529,350.566,348.532,0.0
53014.0,STARLINK-4183,PAYLOAD,2022-07-20 22:00:01,15.73247529,0.0001547,53.2196,313.4044,40.8612,315.064,-0.0011824,-0.00163711,0.0,0 STARLINK-4183,1 53014U 22076AE  22201.91668981 -.00163711  00000-0 -11824-2 0  9994,2 53014  53.2196 313.4044 0001547  40.8612 315.0640 15.73247529  1306,6727.76,91.53,350.665,348.584,0.0
53014.0,STARLINK-4183,PAYLOAD,2022-07-21 08:00:01,15.730998199999998,0.0001512,53.2199,311.3415,49.0308,147.9386,0.00011604,0.00015627,0.0,0 STARLINK-4183,1 53014U 22076AE  22202.33334491  .00015627  00000-0  11604-3 0  9994,2 53014  53.2199 311.3415 0001512  49.0308 147.9386 15.73099820  2661,6728.181,91.539,351.06300000000016,349.029,0.0
53014.0,STARLINK-4183,PAYLOAD,2022-07-21 14:00:01,15.7309508,0.0001691,53.2195,310.1061,41.085,132.5555,0.00021004,0.00028827,0.0,0 STARLINK-4183,1 53014U 22076AE  22202.58335648  .00028827  00000-0  21004-3 0  9997,2 53014  53.2195 310.1061 0001691  41.0850 132.5555 15.73095080  1305,6728.194,91.539,351.19699999999995,348.922,0.0
53014.0,STARLINK-4183,PAYLOAD,2022-07-21 22:00:00,15.73257319,0.0001749,53.2179,308.4533,45.3468,217.1506,-0.00082786,-0.00115513,0.0,0 STARLINK-4183,1 53014U 22076AE  22202.91667824 -.00115513  00000-0 -82786-3 0  9993,2 53014  53.2179 308.4533 0001749  45.3468 217.1506 15.73257319  2769,6727.732,91.53,350.773,348.42,0.0
53014.0,STARLINK-4183,PAYLOAD,2022-07-22 06:00:00,15.73241473,0.0001587,53.2192,306.8054,49.1915,302.2506,-0.00018043,-0.0002591,0.0,0 STARLINK-4183,1 53014U 22076AE  22203.25001157 -.00025910  00000-0 -18043-3 0  9998,2 53014  53.2192 306.8054 0001587  49.1915 302.2506 15.73241473  2819,6727.776999999999,91.531,350.71,348.574,0.0
53014.0,STARLINK-4183,PAYLOAD,2022-07-22 22:00:00,15.73206383,0.0001601,53.2195,303.5079,30.818,138.5729,6.5565e-05,8.593e-05,0.0,0 STARLINK-4183,1 53014U 22076AE  22203.91667824  .00008593  00000-0  65565-4 0  9998,2 53014  53.2195 303.5079 0001601  30.8180 138.5729 15.73206383  2910,6727.877,91.533,350.819,348.665,0.0
53014.0,STARLINK-4183,PAYLOAD,2022-07-23 14:00:01,15.73152293,0.000181,53.2195,300.2096,33.7525,313.5686,-0.00015854,-0.00022766,0.0,0 STARLINK-4183,1 53014U 22076AE  22204.58335648 -.00022766  00000-0 -15854-3 0  9993,2 53014  53.2195 300.2096 0001810  33.7525 313.5686 15.73152293  1309,6728.031,91.536,351.11400000000015,348.67800000000005,0.0
53014.0,STARLINK-4183,PAYLOAD,2022-07-23 16:00:00,15.73113134,0.0001804,53.2195,299.7978,30.4815,69.0015,0.00043227,0.00060258,0.0,0 STARLINK-4183,1 53014U 22076AE  22204.66667824  .00060258  00000-0  43227-3 0  9997,2 53014  53.2195 299.7978 0001804  30.4815  69.0015 15.73113134  3031,6728.143,91.538,351.222,348.7940000000001,0.0
53014.0,STARLINK-4183,PAYLOAD,2022-07-23 22:00:00,15.73175211,0.0001718,53.219,298.5596,30.3069,45.8231,0.00010063,0.0001351,0.0,0 STARLINK-4183,1 53014U 22076AE  22204.91667824  .00013510  00000-0  10063-3 0  9996,2 53014  53.2190 298.5596 0001718  30.3069  45.8231 15.73175211  1307,6727.965999999999,91.535,350.987,348.675,0.0
